*******************************************************************************
JPL/HORIZONS                     9P/Tempel 1               2023-Mar-06 15:43:21
Rec #:90000191 (+COV) Soln.date: 2023-Jan-23_10:50:36   # obs: 3196 (2008-2023)
 
IAU76/J2000 helio. ecliptic osc. elements (au, days, deg., period=Julian yrs):
 
  EPOCH=  2457392.5 ! 2016-Jan-05.0000000 (TDB)    RMSW= n.a.
   EC= .5097999804189542   QR= 1.542431379316903   TP= 2457603.0601539891
   OM= 68.76456904995311   W= 179.1882980775259    IN= 10.47325642682407
   A= 3.146534715839377    MA= 322.8181091274171   ADIST= 4.750638052361851
   PER= 5.5815779437711    N= .176585599           ANGMOM= .026250893
   DAN= 4.75014            DDN= 1.54248            L= 247.9663884
   B= .1475436             MOID= .52771801         TP= 2016-Aug-02.5601539891
 
Comet physical (GM= km^3/s^2; RAD= km):
   GM= n.a.                RAD= 3.
   M1=  12.8     M2=  n.a.     k1=  9.25   k2= n.a.     PHCOF= n.a.
 
Comet non-gravitational force model (AMRAT=m^2/kg;A1-A3=au/d^2;DT=days;R0=au):
   AMRAT=  0.                                      DT=  0.
   A1= 2.97038257122E-11   A2= 1.200092374347E-11  A3= 0.
 Standard model:
   ALN=  .1112620426   NK=  4.6142   NM=  2.15     NN=  5.093    R0=  2.808
 
COMET comments 
1: soln ref.= JPL#K223/33, data arc: 2008-10-25 to 2023-01-03
2: k1=9.25;
*******************************************************************************


*******************************************************************************
Ephemeris / WWW_USER Mon Mar  6 15:43:21 2023 Pasadena, USA      / Horizons
*******************************************************************************
Target body name: 9P/Tempel 1                     {source: JPL#K223/33}
Center body name: Sun (10)                        {source: DE441}
Center-site name: BODY CENTER
*******************************************************************************
Start time      : A.D. 2015-Jan-01 00:00:00.0000 TDB
Stop  time      : A.D. 2022-Jan-01 00:00:00.0000 TDB
Step-size       : 1440 minutes
*******************************************************************************
Center geodetic : 0.0, 0.0, 0.0                   {E-lon(deg),Lat(deg),Alt(km)}
Center cylindric: 0.0, 0.0, 0.0                   {E-lon(deg),Dxy(km),Dz(km)}
Center radii    : 696000.0, 696000.0, 696000.0 km {Equator_a, b, pole_c}
Small perturbers: Yes                             {source: SB441-N16}
Output units    : KM-S
Calendar mode   : Mixed Julian/Gregorian
Output type     : GEOMETRIC cartesian states
Output format   : 1x (position w/uncertainties: XYZ)
Reference frame : ICRF
*******************************************************************************
Initial IAU76/J2000 heliocentric ecliptic osculating elements (au, days, deg.):
  EPOCH=  2457392.5 ! 2016-Jan-05.0000000 (TDB)    RMSW= n.a.                  
   EC= .5097999804189542   QR= 1.542431379316903   TP= 2457603.0601539891      
   OM= 68.76456904995311   W= 179.1882980775259    IN= 10.47325642682407       
  Equivalent ICRF heliocentric cartesian coordinates (au, au/d):
   X=-2.132495037824681E+00  Y= 8.052332916161303E-01  Z= 8.275338802179315E-01
  VX= 2.213130305148093E-04 VY=-1.086716657845270E-02 VZ=-5.644521506084116E-03
Comet physical (GM= km^3/s^2; RAD= km):                                        
   GM= n.a.                RAD= 3.                                             
   M1=  12.8     M2=  n.a.     k1=  9.25   k2= n.a.     PHCOF= n.a.            
Comet non-gravitational force model (AMRAT=m^2/kg;A1-A3=au/d^2;DT=days;R0=au): 
   AMRAT=  0.                                      DT=  0.                     
   A1= 2.97038257122E-11   A2= 1.200092374347E-11  A3= 0.                      
 Standard model:                                                               
   ALN=  .1112620426   NK=  4.6142   NM=  2.15     NN=  5.093    R0=  2.808    
*******************************************************************************
JDTDB
 Position: X        Y        Z
 1-sigma : X_s      Y_s      Z_s
*******************************************************************************
$$SOE
2459534.500000000 = A.D. 2021-Nov-16 00:00:00.0000 TDB 
 XYZ   : -2.720961439156889E+08  -5.341239666468539E+07   2.505432450936191E+07
 sigmas:         5.83357579E+01          8.06493527E+01          5.10863637E+01
2459535.500000000 = A.D. 2021-Nov-17 00:00:00.0000 TDB 
 XYZ   : -2.710922646892542E+08  -5.510733874336002E+07   2.398631306723110E+07
 sigmas:         5.86369920E+01          8.05218289E+01          5.11451373E+01
2459536.500000000 = A.D. 2021-Nov-18 00:00:00.0000 TDB 
 XYZ   : -2.700758419751982E+08  -5.679973042770196E+07   2.291719185582801E+07
 sigmas:         5.89440438E+01          8.03907758E+01          5.12030328E+01
2459537.500000000 = A.D. 2021-Nov-19 00:00:00.0000 TDB 
 XYZ   : -2.690468222555223E+08  -5.848947226345230E+07   2.184700181350946E+07
 sigmas:         5.92568385E+01          8.02561456E+01          5.12600130E+01
2459538.500000000 = A.D. 2021-Nov-20 00:00:00.0000 TDB 
 XYZ   : -2.680051527434915E+08  -6.017646352656263E+07   2.077578467475990E+07
 sigmas:         5.95752992E+01          8.01178906E+01          5.13160403E+01
2459539.500000000 = A.D. 2021-Nov-21 00:00:00.0000 TDB 
 XYZ   : -2.669507814161905E+08  -6.186060222127333E+07   1.970358297747513E+07
 sigmas:         5.98993460E+01          7.99759630E+01          5.13710767E+01
2459540.500000000 = A.D. 2021-Nov-22 00:00:00.0000 TDB 
 XYZ   : -2.658836570476933E+08  -6.354178507878847E+07   1.863044007005713E+07
 sigmas:         6.02288969E+01          7.98303149E+01          5.14250838E+01
2459541.500000000 = A.D. 2021-Nov-23 00:00:00.0000 TDB 
 XYZ   : -2.648037292428425E+08  -6.521990755657081E+07   1.755640011830673E+07
 sigmas:         6.05638671E+01          7.96808988E+01          5.14780232E+01
2459542.500000000 = A.D. 2021-Nov-24 00:00:00.0000 TDB 
 XYZ   : -2.637109484716338E+08  -6.689486383828112E+07   1.648150811210103E+07
 sigmas:         6.09041697E+01          7.95276670E+01          5.15298560E+01
2459543.500000000 = A.D. 2021-Nov-25 00:00:00.0000 TDB 
 XYZ   : -2.626052661041998E+08  -6.856654683438595E+07   1.540580987184181E+07
 sigmas:         6.12497152E+01          7.93705721E+01          5.15805429E+01
2459544.500000000 = A.D. 2021-Nov-26 00:00:00.0000 TDB 
 XYZ   : -2.614866344463865E+08  -7.023484818345851E+07   1.432935205466101E+07
 sigmas:         6.16004117E+01          7.92095667E+01          5.16300445E+01
2459545.500000000 = A.D. 2021-Nov-27 00:00:00.0000 TDB 
 XYZ   : -2.603550067759141E+08  -7.189965825419778E+07   1.325218216036896E+07
 sigmas:         6.19561652E+01          7.90446038E+01          5.16783212E+01
2459546.500000000 = A.D. 2021-Nov-28 00:00:00.0000 TDB 
 XYZ   : -2.592103373791148E+08  -7.356086614819060E+07   1.217434853713070E+07
 sigmas:         6.23168792E+01          7.88756366E+01          5.17253329E+01
2459547.500000000 = A.D. 2021-Nov-29 00:00:00.0000 TDB 
 XYZ   : -2.580525815882361E+08  -7.521835970344236E+07   1.109590038685542E+07
 sigmas:         6.26824551E+01          7.87026185E+01          5.17710395E+01
2459548.500000000 = A.D. 2021-Nov-30 00:00:00.0000 TDB 
 XYZ   : -2.568816958193001E+08  -7.687202549870192E+07   1.001688777028384E+07
 sigmas:         6.30527920E+01          7.85255033E+01          5.18154008E+01
2459549.500000000 = A.D. 2021-Dec-01 00:00:00.0000 TDB 
 XYZ   : -2.556976376105062E+08  -7.852174885860600E+07   8.937361611757813E+06
 sigmas:         6.34277867E+01          7.83442452E+01          5.18583760E+01
2459550.500000000 = A.D. 2021-Dec-02 00:00:00.0000 TDB 
 XYZ   : -2.545003656611634E+08  -8.016741385966943E+07   7.857373703656388E+06
 sigmas:         6.38073342E+01          7.81587988E+01          5.18999245E+01
2459551.500000000 = A.D. 2021-Dec-03 00:00:00.0000 TDB 
 XYZ   : -2.532898398711388E+08  -8.180890333714685E+07   6.776976710482137E+06
 sigmas:         6.41913269E+01          7.79691192E+01          5.19400054E+01
2459552.500000000 = A.D. 2021-Dec-04 00:00:00.0000 TDB 
 XYZ   : -2.520660213808056E+08  -8.344609889279157E+07   5.696224172581352E+06
 sigmas:         6.45796554E+01          7.77751619E+01          5.19785778E+01
2459553.500000000 = A.D. 2021-Dec-05 00:00:00.0000 TDB 
 XYZ   : -2.508288726114741E+08  -8.507888090353806E+07   4.615170509481412E+06
 sigmas:         6.49722080E+01          7.75768832E+01          5.20156005E+01
2459554.500000000 = A.D. 2021-Dec-06 00:00:00.0000 TDB 
 XYZ   : -2.495783573062868E+08  -8.670712853113352E+07   3.533871022828458E+06
 sigmas:         6.53688712E+01          7.73742398E+01          5.20510324E+01
2459555.500000000 = A.D. 2021-Dec-07 00:00:00.0000 TDB 
 XYZ   : -2.483144405715581E+08  -8.833071973274423E+07   2.452381898908230E+06
 sigmas:         6.57695292E+01          7.71671892E+01          5.20848322E+01
2459556.500000000 = A.D. 2021-Dec-08 00:00:00.0000 TDB 
 XYZ   : -2.470370889185373E+08  -8.994953127256286E+07   1.370760210732766E+06
 sigmas:         6.61740644E+01          7.69556896E+01          5.21169587E+01
2459557.500000000 = A.D. 2021-Dec-09 00:00:00.0000 TDB 
 XYZ   : -2.457462703055722E+08  -9.156343873444144E+07   2.890639196754487E+05
 sigmas:         6.65823570E+01          7.67396999E+01          5.21473706E+01
2459558.500000000 = A.D. 2021-Dec-10 00:00:00.0000 TDB 
 XYZ   : -2.444419541806484E+08  -9.317231653557566E+07  -7.926481233632128E+05
 sigmas:         6.69942855E+01          7.65191799E+01          5.21760266E+01
2459559.500000000 = A.D. 2021-Dec-11 00:00:00.0000 TDB 
 XYZ   : -2.431241115242806E+08  -9.477603794126499E+07  -1.874316177276872E+06
 sigmas:         6.74097262E+01          7.62940905E+01          5.22028856E+01
2459560.500000000 = A.D. 2021-Dec-12 00:00:00.0000 TDB 
 XYZ   : -2.417927148927262E+08  -9.637447508077355E+07  -2.955879610579568E+06
 sigmas:         6.78285537E+01          7.60643932E+01          5.22279063E+01
